{"type": "FeatureCollection", "features": [ {"type": "Feature", "properties": {"norad_id": 34685, "name": "COSMOS 2251 DEB", "group": "cosmos-2251-debris", "lat": 39.41276248098533, "lon": 139.6463913364954, "alt_km": 707.4594471296241, "timestamp": "2025-12-24T16:52:41.932458+00:00", "meta": {"OBJECT_NAME": "COSMOS 2251 DEB", "OBJECT_ID": "1993-036YF", "EPOCH": "2025-12-24T02:40:25.828320", "MEAN_MOTION": 14.57603922, "ECCENTRICITY": 0.00142084, "INCLINATION": 74.0299, "RA_OF_ASC_NODE": 127.1601, "ARG_OF_PERICENTER": 232.1356, "MEAN_ANOMALY": 304.844, "EPHEMERIS_TYPE": 0, "CLASSIFICATION_TYPE": "U", "NORAD_CAT_ID": 34685, "ELEMENT_SET_NO": 999, "REV_AT_EPOCH": 88697, "BSTAR": 0.0011246786, "MEAN_MOTION_DOT": 5.105e-05, "MEAN_MOTION_DDOT": 0}, "tle": {"line1": "1 34685U 93036YF  25358.11141005  .00005105  00000+0  11247-2 0  9990", "line2": "2 34685  74.0299 127.1601 0014208 232.1356 304.8440 14.57603922886974"}}, "geometry": {"type": "Point", "coordinates": [139.6463913364954, 39.41276248098533]}}, {"type": "Feature", "properties": {"norad_id": 34689, "name": "COSMOS 2251 DEB", "group": "cosmos-2251-debris", "lat": 56.53616947070824, "lon": -2.9733373899604554, "alt_km": 1012.4585313747621, "timestamp": "2025-12-24T16:52:41.932469+00:00", "meta": {"OBJECT_NAME": "COSMOS 2251 DEB", "OBJECT_ID": "1993-036YK", "EPOCH": "2025-12-15T15:20:16.539648", "MEAN_MOTION": 14.04491905, "ECCENTRICITY": 0.02275051, "INCLINATION": 74.0901, "RA_OF_ASC_NODE": 218.3502, "ARG_OF_PERICENTER": 286.6099, "MEAN_ANOMALY": 101.262, "EPHEMERIS_TYPE": 0, "CLASSIFICATION_TYPE": "U", "NORAD_CAT_ID": 34689, "ELEMENT_SET_NO": 999, "REV_AT_EPOCH": 84382, "BSTAR": 0.0020174062, "MEAN_MOTION_DOT": 4.031e-05, "MEAN_MOTION_DDOT": 0}, "tle": {"line1": "1 34689U 93036YK  25349.63908032  .00004031  00000+0  20174-2 0  9998", "line2": "2 34689  74.0901 218.3502 0227505 286.6099 101.2620 14.04491905843829"}}, "geometry": {"type": "Point", "coordinates": [-2.9733373899604554, 56.53616947070824]}}, {"type": "Feature", "properties": {"norad_id": 34721, "name": "COSMOS 2251 DEB", "group": "cosmos-2251-debris", "lat": -0.7291279194345319, "lon": 125.70201768188622, "alt_km": 827.1911421300119, "timestamp": "2025-12-24T16:52:41.932480+00:00", "meta": {"OBJECT_NAME": "COSMOS 2251 DEB", "OBJECT_ID": "1993-036YP", "EPOCH": "2025-12-23T08:06:44.057952", "MEAN_MOTION": 13.96892285, "ECCENTRICITY": 0.0222857, "INCLINATION": 73.9221, "RA_OF_ASC_NODE": 307.8595, "ARG_OF_PERICENTER": 244.8639, "MEAN_ANOMALY": 275.037, "EPHEMERIS_TYPE": 0, "CLASSIFICATION_TYPE": "U", "NORAD_CAT_ID": 34721, "ELEMENT_SET_NO": 999, "REV_AT_EPOCH": 85297, "BSTAR": 0.0009996873, "MEAN_MOTION_DOT": 1.69e-05, "MEAN_MOTION_DDOT": 0}, "tle": {"line1": "1 34721U 93036YP  25357.33800993  .00001690  00000+0  99969-3 0  9995", "line2": "2 34721  73.9221 307.8595 0222857 244.8639 275.0370 13.96892285852970"}}, "geometry": {"type": "Point", "coordinates": [125.70201768188622, -0.7291279194345319]}}, {"type": "Feature", "properties": {"norad_id": 34722, "name": "COSMOS 2251 DEB", "group": "cosmos-2251-debris", "lat": -20.044569082839494, "lon": -51.33005810574702, "alt_km": 878.5157236344321, "timestamp": "2025-12-24T16:52:41.932491+00:00", "meta": {"OBJECT_NAME": "COSMOS 2251 DEB", "OBJECT_ID": "1993-036YQ", "EPOCH": "2025-12-24T03:27:06.651936", "MEAN_MOTION": 14.11966328, "ECCENTRICITY": 0.01665205, "INCLINATION": 73.8735, "RA_OF_ASC_NODE": 315.7266, "ARG_OF_PERICENTER": 239.2863, "MEAN_ANOMALY": 135.4881, "EPHEMERIS_TYPE": 0, "CLASSIFICATION_TYPE": "U", "NORAD_CAT_ID": 34722, "ELEMENT_SET_NO": 999, "REV_AT_EPOCH": 86406, "BSTAR": 0.00062986617, "MEAN_MOTION_DOT": 1.286e-05, "MEAN_MOTION_DDOT": 0}, "tle": {"line1": "1 34722U 93036YQ  25358.14382699  .00001286  00000+0  62987-3 0  9995", "line2": "2 34722  73.8735 315.7266 0166520 239.2863 135.4881 14.11966328864061"}}, "geometry": {"type": "Point", "coordinates": [-51.33005810574702, -20.044569082839494]}}, {"type": "Feature", "properties": {"norad_id": 34726, "name": "COSMOS 2251 DEB", "group": "cosmos-2251-debris", "lat": -65.87609296125731, "lon": -176.74079380189258, "alt_km": 724.5169629669317, "timestamp": "2025-12-24T16:52:41.932502+00:00", "meta": {"OBJECT_NAME": "COSMOS 2251 DEB", "OBJECT_ID": "1993-036YU", "EPOCH": "2025-12-24T04:13:01.255872", "MEAN_MOTION": 14.59524729, "ECCENTRICITY": 0.00417122, "INCLINATION": 74.0282, "RA_OF_ASC_NODE": 324.5074, "ARG_OF_PERICENTER": 111.625, "MEAN_ANOMALY": 248.9367, "EPHEMERIS_TYPE": 0, "CLASSIFICATION_TYPE": "U", "NORAD_CAT_ID": 34726, "ELEMENT_SET_NO": 999, "REV_AT_EPOCH": 88669, "BSTAR": 0.00041571183, "MEAN_MOTION_DOT": 1.969e-05, "MEAN_MOTION_DDOT": 0}, "tle": {"line1": "1 34726U 93036YU  25358.17570898  .00001969  00000+0  41571-3 0  9996", "line2": "2 34726  74.0282 324.5074 0041712 111.6250 248.9367 14.59524729886697"}}, "geometry": {"type": "Point", "coordinates": [-176.74079380189258, -65.87609296125731]}}, {"type": "Feature", "properties": {"norad_id": 34728, "name": "COSMOS 2251 DEB", "group": "cosmos-2251-debris", "lat": -70.75299415038796, "lon": 103.69435274547708, "alt_km": 681.17108250616, "timestamp": "2025-12-24T16:52:41.932513+00:00", "meta": {"OBJECT_NAME": "COSMOS 2251 DEB", "OBJECT_ID": "1993-036YW", "EPOCH": "2025-12-20T02:20:18.568032", "MEAN_MOTION": 14.70905998, "ECCENTRICITY": 0.00414013, "INCLINATION": 74.0163, "RA_OF_ASC_NODE": 237.4676, "ARG_OF_PERICENTER": 33.08, "MEAN_ANOMALY": 327.2947, "EPHEMERIS_TYPE": 0, "CLASSIFICATION_TYPE": "U", "NORAD_CAT_ID": 34728, "ELEMENT_SET_NO": 999, "REV_AT_EPOCH": 88908, "BSTAR": 0.00043281985, "MEAN_MOTION_DOT": 2.653e-05, "MEAN_MOTION_DDOT": 0}, "tle": {"line1": "1 34728U 93036YW  25354.09743713  .00002653  00000+0  43282-3 0  9995", "line2": "2 34728  74.0163 237.4676 0041401  33.0800 327.2947 14.70905998889085"}}, "geometry": {"type": "Point", "coordinates": [103.69435274547708, -70.75299415038796]}}, {"type": "Feature", "properties": {"norad_id": 34729, "name": "COSMOS 2251 DEB", "group": "cosmos-2251-debris", "lat": 66.24320024123419, "lon": 15.35253996364534, "alt_km": 604.5329666358084, "timestamp": "2025-12-24T16:52:41.932524+00:00", "meta": {"OBJECT_NAME": "COSMOS 2251 DEB", "OBJECT_ID": "1993-036YX", "EPOCH": "2025-12-24T05:18:14.093280", "MEAN_MOTION": 14.83114289, "ECCENTRICITY": 0.00120023, "INCLINATION": 74.0186, "RA_OF_ASC_NODE": 335.6824, "ARG_OF_PERICENTER": 88.3709, "MEAN_ANOMALY": 290.0343, "EPHEMERIS_TYPE": 0, "CLASSIFICATION_TYPE": "U", "NORAD_CAT_ID": 34729, "ELEMENT_SET_NO": 999, "REV_AT_EPOCH": 88628, "BSTAR": 0.0022211559, "MEAN_MOTION_DOT": 0.00018141, "MEAN_MOTION_DDOT": 0}, "tle": {"line1": "1 34729U 93036YX  25358.22099645  .00018141  00000+0  22212-2 0  9991", "line2": "2 34729  74.0186 335.6824 0012002  88.3709 290.0343 14.83114289886288"}}, "geometry": {"type": "Point", "coordinates": [15.35253996364534, 66.24320024123419]}}, {"type": "Feature", "properties": {"norad_id": 34732, "name": "COSMOS 2251 DEB", "group": "cosmos-2251-debris", "lat": -23.079920942841323, "lon": -102.16566739792603, "alt_km": 711.9792418237503, "timestamp": "2025-12-24T16:52:41.932535+00:00", "meta": {"OBJECT_NAME": "COSMOS 2251 DEB", "OBJECT_ID": "1993-036ZA", "EPOCH": "2025-12-22T16:32:23.959680", "MEAN_MOTION": 14.47311087, "ECCENTRICITY": 0.00401751, "INCLINATION": 74.0456, "RA_OF_ASC_NODE": 74.5946, "ARG_OF_PERICENTER": 223.757, "MEAN_ANOMALY": 290.4905, "EPHEMERIS_TYPE": 0, "CLASSIFICATION_TYPE": "U", "NORAD_CAT_ID": 34732, "ELEMENT_SET_NO": 999, "REV_AT_EPOCH": 88287, "BSTAR": 0.00012395205, "MEAN_MOTION_DOT": 4.3e-06, "MEAN_MOTION_DDOT": 0}, "tle": {"line1": "1 34732U 93036ZA  25356.68916620  .00000430  00000+0  12395-3 0  9998", "line2": "2 34732  74.0456  74.5946 0040175 223.7570 290.4905 14.47311087882873"}}, "geometry": {"type": "Point", "coordinates": [-102.16566739792603, -23.079920942841323]}}, {"type": "Feature", "properties": {"norad_id": 34736, "name": "COSMOS 2251 DEB", "group": "cosmos-2251-debris", "lat": -10.455114192094738, "lon": -167.1554286250428, "alt_km": 401.3764211717107, "timestamp": "2025-12-24T16:52:41.932546+00:00", "meta": {"OBJECT_NAME": "COSMOS 2251 DEB", "OBJECT_ID": "1993-036ZE", "EPOCH": "2025-12-24T02:11:47.071392", "MEAN_MOTION": 15.58131671, "ECCENTRICITY": 0.00117758, "INCLINATION": 73.9978, "RA_OF_ASC_NODE": 11.1707, "ARG_OF_PERICENTER": 338.3861, "MEAN_ANOMALY": 21.6858, "EPHEMERIS_TYPE": 0, "CLASSIFICATION_TYPE": "U", "NORAD_CAT_ID": 34736, "ELEMENT_SET_NO": 999, "REV_AT_EPOCH": 88624, "BSTAR": 0.0082483738, "MEAN_MOTION_DOT": 0.00677638, "MEAN_MOTION_DDOT": 0}, "tle": {"line1": "1 34736U 93036ZE  25358.09151703  .00677638  00000+0  82484-2 0  9997", "line2": "2 34736  73.9978  11.1707 0011775 338.3861  21.6858 15.58131671886244"}}, "geometry": {"type": "Point", "coordinates": [-167.1554286250428, -10.455114192094738]}}, {"type": "Feature", "properties": {"norad_id": 34738, "name": "COSMOS 2251 DEB", "group": "cosmos-2251-debris", "lat": -12.79770434408032, "lon": -55.36012777770499, "alt_km": 731.0339367286633, "timestamp": "2025-12-24T16:52:41.932556+00:00", "meta": {"OBJECT_NAME": "COSMOS 2251 DEB", "OBJECT_ID": "1993-036ZG", "EPOCH": "2025-12-23T18:44:43.283328", "MEAN_MOTION": 14.4632643, "ECCENTRICITY": 0.00475663, "INCLINATION": 74.0156, "RA_OF_ASC_NODE": 122.6297, "ARG_OF_PERICENTER": 266.8783, "MEAN_ANOMALY": 167.0667, "EPHEMERIS_TYPE": 0, "CLASSIFICATION_TYPE": "U", "NORAD_CAT_ID": 34738, "ELEMENT_SET_NO": 999, "REV_AT_EPOCH": 88018, "BSTAR": 0.00030074639, "MEAN_MOTION_DOT": 1.066e-05, "MEAN_MOTION_DDOT": 0}, "tle": {"line1": "1 34738U 93036ZG  25357.78105652  .00001066  00000+0  30075-3 0  9992", "line2": "2 34738  74.0156 122.6297 0047566 266.8783 167.0667 14.46326430880188"}}, "geometry": {"type": "Point", "coordinates": [-55.36012777770499, -12.79770434408032]}}]}